satname,norad_id,inclination_deg,eccentricity,mean_motion_rev_per_day,perigee_km,apogee_km,l1,l2
STARLINK-1572,46060,53.1618,0.0001017,15.30191383,474.5438098267459,475.9377868709307,1 46060U 20055AK  26174.73515236  .00001627  00000+0  67066-4 0  9994,2 46060  53.1618 341.5454 0001017  76.2960 283.8154 15.30191383325271
STARLINK-1573,46061,53.1621,8.82e-05,15.31698779,470.1395636935249,471.3477062375332,1 46061U 20055AL  26174.76293609  .00000844  00000+0  38959-4 0  9994,2 46061  53.1621 340.3989 0000882  73.9170 286.1928 15.31698779325325
STARLINK-1577,46063,53.1609,0.0001255,15.31698137,469.88601397746606,471.6050834971993,1 46063U 20055AN  26174.85614732  .00001194  00000+0  50250-4 0  9997,2 46063  53.1609 339.9617 0001255  73.8899 286.2241 15.31698137325335
STARLINK-1583,46064,53.16,0.0001095,15.31705968,469.9722549030148,471.47215506890734,1 46064U 20055AP  26174.73969556  .00004146  00000+0  14526-3 0  9997,2 46064  53.1600 341.0057 0001095  80.9187 279.1938 15.31705968325302
STARLINK-1536,46070,53.16,6.92e-05,15.31723663,470.1955205551767,471.1433953689593,1 46070U 20055AV  26174.15372202  .00004645  00000+0  16123-3 0  9995,2 46070  53.1600 331.1204 0000692  79.9521 280.1558 15.31723663325396
STARLINK-1542,46073,53.1603,0.0001121,15.3170087,469.96964298170406,471.505160622587,1 46073U 20055AY  26174.83060547  .00001259  00000+0  52328-4 0  9995,2 46073  53.1603 330.9360 0001121  85.1620 274.9509 15.31700870325447
STARLINK-1549,46074,53.0496,0.0001619,15.32951865,465.90256117231183,468.1190200269075,1 46074U 20055AZ  26174.91668981  .00044430  00000+0  13798-2 0  9995,2 46074  53.0496 327.6287 0001619  92.3898 185.3450 15.32951865  5906
STARLINK-1551,46075,53.1618,0.0001149,15.31688499,469.9873394167116,471.5612192287008,1 46075U 20055BA  26174.86249054  .00008592  00000+0  28840-3 0  9990,2 46075  53.1618 327.7544 0001149 102.2584 257.8546 15.31688499325491
STARLINK-1552,46076,53.1609,0.0001044,15.31688142,470.0603170859895,471.4903699833194,1 46076U 20055BB  26174.71795740  .00002585  00000+0  95062-4 0  9990,2 46076  53.1609 328.0114 0001044  79.6236 280.4883 15.31688142325462
STARLINK-1559,46077,53.0205,0.0001951,15.39806524,445.3494263562652,448.01247031970615,1 46077U 20055BC  26174.63856515  .00040101  00000+0  10010-2 0  9994,2 46077  53.0205 296.8057 0001951 338.0959  21.9960 15.39806524325854
STARLINK-1566,46079,53.1596,9.98e-05,15.31703762,470.04526411742336,471.4122977272955,1 46079U 20055BE  26174.85309386  .00000380  00000+0  24007-4 0  9997,2 46079  53.1596 327.2377 0000998  94.0446 266.0669 15.31703762325506
STARLINK-1568,46080,53.0564,0.0003034,15.55572715,398.43169342218425,402.5449632714244,1 46080U 20055BF  26174.49693882  .00033629  00000+0  48728-3 0  9993,2 46080  53.0564 244.6380 0003034  61.8164 298.3153 15.55572715326618
STARLINK-1578,46082,53.1612,0.0001134,15.31705716,469.9462954610408,471.4996168991038,1 46082U 20055BH  26174.85749379 -.00001512  00000+0 -36949-4 0  9999,2 46082  53.1612 327.7329 0001134 102.3070 257.8059 15.31705716325490
STARLINK-1579,46083,53.1606,0.0001087,15.31712249,469.9590128769896,471.4479507977403,1 46083U 20055BJ  26174.77852100  .00003771  00000+0  13317-3 0  9998,2 46083  53.1606 327.6378 0001087  91.2212 268.8914 15.31712249325488
STARLINK-1622,46128,53.0121,0.0004431,15.9180762,294.26662903151737,300.18233437660456,1 46128U 20057M   26174.91668981  .00266795  37751-4  80203-3 0  9991,2 46128  53.0121  54.3158 0004431 175.6418 341.5849 15.91807620  5957
STARLINK-1623,46129,53.0382,0.0004342,15.78598343,331.49654534498404,337.3257221443282,1 46129U 20057N   26174.08444957  .00131755  00000+0  73253-3 0  9991,2 46129  53.0382  98.0954 0004342  97.8366 262.3147 15.78598343323435
STARLINK-1596,46141,53.0333,0.0005377,15.62608478,376.49159468585276,383.7594301917288,1 46141U 20057AA  26174.96473101  .00095937  00000+0  10466-2 0  9992,2 46141  53.0333  78.0213 0005377  99.5061 260.6560 15.62608478323794
STARLINK-1597,46142,53.0381,0.0004563,15.78258235,332.31207394226294,338.4388254038349,1 46142U 20057AB  26174.88810944  .00134934  00000+0  76133-3 0  9999,2 46142  53.0381 133.8619 0004563  85.4616 274.6925 15.78258235322994
STARLINK-1606,46144,53.027,0.000669,16.15586157,227.141276126531,235.98505494801975,1 46144U 20057AD  26174.91557831  .01377696  14547-2  98996-3 0  9998,2 46144  53.0270  83.4985 0006690 229.9221 130.1228 16.15586157311954
STARLINK-1608,46146,53.1575,0.0006008,15.37487248,449.4381731341073,457.6471193970592,1 46146U 20057AF  26174.72068419  .00035207  00000+0  94931-3 0  9997,2 46146  53.1575 174.7344 0006008  31.8887 328.2480 15.37487248322449
STARLINK-1667,46155,53.0083,0.0005922,16.03422526,261.0146512135343,268.88272190069256,1 46155U 20057AQ  26174.92809158  .00606533  18332-3  94883-3 0  9995,2 46155  53.0083  52.4480 0005922 223.1953 136.8614 16.03422526325378
STARLINK-1545,46156,53.0338,0.0005003,15.94489551,286.4011401969974,293.07301499904133,1 46156U 20057AR  26174.91668981  .00291255  44096-4  75923-3 0  9994,2 46156  53.0338  89.6378 0005003 219.4435  38.0845 15.94489551  6008
STARLINK-1595,46159,53.0376,0.0005441,15.75862489,338.52146485127196,345.8345116214705,1 46159U 20057AU  26174.87944834  .00119624  00000+0  75215-3 0  9991,2 46159  53.0376 136.9280 0005441  79.8538 280.3094 15.75862489324217
STARLINK-1598,46160,53.0421,7.15e-05,15.75136891,343.76102030431866,344.7223204541824,1 46160U 20057AV  26174.85853029  .00104800  00000+0  68233-3 0  9998,2 46160  53.0421 123.2489 0000715  24.9210 335.1843 15.75136891324398
STARLINK-1626,46167,53.038,0.0001571,15.78966178,332.31421498279815,334.42297003996464,1 46167U 20057BC  26174.87546405  .00130073  00000+0  71177-3 0  9996,2 46167  53.0380 132.1990 0001571 130.1611 229.9547 15.78966178323023
STARLINK-1633,46171,53.0308,0.0003866,15.89113047,302.1847723429273,307.3519947854993,1 46171U 20057BG  26174.91668981  .00182716  00000+0  61229-3 0  9998,2 46171  53.0308  91.9870 0003866 205.8342 132.3522 15.89113047  6060
STARLINK-1635,46172,53.0298,0.0006187,15.99646389,271.28251282389465,279.5155983390705,1 46172U 20057BH  26174.91668981  .00421951  86928-4  82400-3 0  9998,2 46172  53.0298  88.9284 0006187 219.5539 123.5668 15.99646389  5785
STARLINK-1640,46173,53.0374,0.0005015,15.75998438,338.421466024437,345.16155432013966,1 46173U 20057BJ  26174.91511291  .00122938  00000+0  76808-3 0  9990,2 46173  53.0374 137.7742 0005015  73.4162 286.7408 15.75998438322944
